{
  "type": "FeatureCollection",
  "features": [
    {
      "type": "Feature",
      "properties": {
        "norad_id": 38709,
        "name": "EXACTVIEW-1 (ADS-1B)",
        "group": "resource",
        "lat": 60.9163023559195,
        "lon": 76.65386874331696,
        "alt_km": 799.2375492369729,
        "timestamp": "2025-12-10T18:56:59.718827+00:00",
        "meta_object_name": "EXACTVIEW-1 (ADS-1B)",
        "meta_object_id": "2012-039C",
        "meta_epoch": "2025-12-10T06:51:45.471744",
        "meta_mean_motion": 14.24906576,
        "meta_eccentricity": 0.0010796,
        "meta_inclination": 98.9635,
        "meta_ra_of_asc_node": 92.6245,
        "meta_arg_of_pericenter": 1.3591,
        "meta_mean_anomaly": 358.7615,
        "meta_ephemeris_type": 0,
        "meta_classification_type": "U",
        "meta_norad_cat_id": 38709,
        "meta_element_set_no": 999,
        "meta_rev_at_epoch": 69580,
        "meta_bstar": 0.00014505,
        "meta_mean_motion_dot": 2.93e-06,
        "meta_mean_motion_ddot": 0,
        "tle_line1": "1 38709U 12039C   25344.28594296  .00000293  00000+0  14505-3 0  9996",
        "tle_line2": "2 38709  98.9635  92.6245 0010796   1.3591 358.7615 14.24906576695806"
      },
      "geometry": {
        "type": "Point",
        "coordinates": [
          76.65386874331696,
          60.9163023559195
        ]
      }
    },
    {
      "type": "Feature",
      "properties": {
        "norad_id": 38755,
        "name": "SPOT 6",
        "group": "resource",
        "lat": -34.105848762525596,
        "lon": -135.96430846122942,
        "alt_km": 704.2837347531804,
        "timestamp": "2025-12-10T18:56:59.718838+00:00",
        "meta_object_name": "SPOT 6",
        "meta_object_id": "2012-047A",
        "meta_epoch": "2025-12-10T11:23:04.220160",
        "meta_mean_motion": 14.58600026,
        "meta_eccentricity": 0.0001097,
        "meta_inclination": 98.157,
        "meta_ra_of_asc_node": 49.3003,
        "meta_arg_of_pericenter": 95.7769,
        "meta_mean_anomaly": 264.3555,
        "meta_ephemeris_type": 0,
        "meta_classification_type": "U",
        "meta_norad_cat_id": 38755,
        "meta_element_set_no": 999,
        "meta_rev_at_epoch": 70554,
        "meta_bstar": 0.00016389,
        "meta_mean_motion_dot": 7.17e-06,
        "meta_mean_motion_ddot": 0,
        "tle_line1": "1 38755U 12047A   25344.47435440  .00000717  00000+0  16389-3 0  9995",
        "tle_line2": "2 38755  98.1570  49.3003 0001097  95.7769 264.3555 14.58600026705542"
      },
      "geometry": {
        "type": "Point",
        "coordinates": [
          -135.96430846122942,
          -34.105848762525596
        ]
      }
    },
    {
      "type": "Feature",
      "properties": {
        "norad_id": 39019,
        "name": "PLEIADES 1B",
        "group": "resource",
        "lat": 65.33460495921787,
        "lon": -104.27575080970836,
        "alt_km": 690.7474686505484,
        "timestamp": "2025-12-10T18:56:59.718848+00:00",
        "meta_object_name": "PLEIADES 1B",
        "meta_object_id": "2012-068A",
        "meta_epoch": "2025-12-10T11:50:47.719104",
        "meta_mean_motion": 14.58549782,
        "meta_eccentricity": 0.0001232,
        "meta_inclination": 98.1793,
        "meta_ra_of_asc_node": 57.1806,
        "meta_arg_of_pericenter": 81.1215,
        "meta_mean_anomaly": 279.0124,
        "meta_ephemeris_type": 0,
        "meta_classification_type": "U",
        "meta_norad_cat_id": 39019,
        "meta_element_set_no": 999,
        "meta_rev_at_epoch": 69334,
        "meta_bstar": 0.0001782,
        "meta_mean_motion_dot": 7.83e-06,
        "meta_mean_motion_ddot": 0,
        "tle_line1": "1 39019U 12068A   25344.49360786  .00000783  00000+0  17820-3 0  9998",
        "tle_line2": "2 39019  98.1793  57.1806 0001232  81.1215 279.0124 14.58549782693347"
      },
      "geometry": {
        "type": "Point",
        "coordinates": [
          -104.27575080970836,
          65.33460495921787
        ]
      }
    },
    {
      "type": "Feature",
      "properties": {
        "norad_id": 39030,
        "name": "GOKTURK 2",
        "group": "resource",
        "lat": -31.183880609555587,
        "lon": 1.8484087963934313,
        "alt_km": 650.5100055987114,
        "timestamp": "2025-12-10T18:56:59.718858+00:00",
        "meta_object_name": "GOKTURK 2",
        "meta_object_id": "2012-073A",
        "meta_epoch": "2025-12-10T13:06:40.840992",
        "meta_mean_motion": 14.75286618,
        "meta_eccentricity": 9.52e-05,
        "meta_inclination": 97.6892,
        "meta_ra_of_asc_node": 186.3075,
        "meta_arg_of_pericenter": 103.5695,
        "meta_mean_anomaly": 256.5621,
        "meta_ephemeris_type": 0,
        "meta_classification_type": "U",
        "meta_norad_cat_id": 39030,
        "meta_element_set_no": 999,
        "meta_rev_at_epoch": 69669,
        "meta_bstar": 0.00015767,
        "meta_mean_motion_dot": 1.02e-05,
        "meta_mean_motion_ddot": 0,
        "tle_line1": "1 39030U 12073A   25344.54630603  .00001020  00000+0  15767-3 0  9994",
        "tle_line2": "2 39030  97.6892 186.3075 0000952 103.5695 256.5621 14.75286618696694"
      },
      "geometry": {
        "type": "Point",
        "coordinates": [
          1.8484087963934313,
          -31.183880609555587
        ]
      }
    },
    {
      "type": "Feature",
      "properties": {
        "norad_id": 39084,
        "name": "LANDSAT 8",
        "group": "resource",
        "lat": -65.31892731261189,
        "lon": 71.19647553712723,
        "alt_km": 710.4347714623882,
        "timestamp": "2025-12-10T18:56:59.718868+00:00",
        "meta_object_name": "LANDSAT 8",
        "meta_object_id": "2013-008A",
        "meta_epoch": "2025-12-10T11:00:54.035136",
        "meta_mean_motion": 14.5711056,
        "meta_eccentricity": 0.0001108,
        "meta_inclination": 98.2075,
        "meta_ra_of_asc_node": 52.566,
        "meta_arg_of_pericenter": 87.4004,
        "meta_mean_anomaly": 272.7321,
        "meta_ephemeris_type": 0,
        "meta_classification_type": "U",
        "meta_norad_cat_id": 39084,
        "meta_element_set_no": 999,
        "meta_rev_at_epoch": 67041,
        "meta_bstar": 0.00016177,
        "meta_mean_motion_dot": 6.84e-06,
        "meta_mean_motion_ddot": 0,
        "tle_line1": "1 39084U 13008A   25344.45895874  .00000684  00000+0  16177-3 0  9996",
        "tle_line2": "2 39084  98.2075  52.5660 0001108  87.4004 272.7321 14.57110560670416"
      },
      "geometry": {
        "type": "Point",
        "coordinates": [
          71.19647553712723,
          -65.31892731261189
        ]
      }
    },
    {
      "type": "Feature",
      "properties": {
        "norad_id": 39086,
        "name": "SARAL",
        "group": "resource",
        "lat": 81.44186731887895,
        "lon": 80.11291786658329,
        "alt_km": 773.1970416786171,
        "timestamp": "2025-12-10T18:56:59.718877+00:00",
        "meta_object_name": "SARAL",
        "meta_object_id": "2013-009A",
        "meta_epoch": "2025-12-10T11:49:41.782944",
        "meta_mean_motion": 14.3275584,
        "meta_eccentricity": 0.0002823,
        "meta_inclination": 98.5503,
        "meta_ra_of_asc_node": 168.4526,
        "meta_arg_of_pericenter": 112.8237,
        "meta_mean_anomaly": 247.3245,
        "meta_ephemeris_type": 0,
        "meta_classification_type": "U",
        "meta_norad_cat_id": 39086,
        "meta_element_set_no": 999,
        "meta_rev_at_epoch": 66858,
        "meta_bstar": 9.4163e-05,
        "meta_mean_motion_dot": 2.13e-06,
        "meta_mean_motion_ddot": 0,
        "tle_line1": "1 39086U 13009A   25344.49284471  .00000213  00000+0  94163-4 0  9998",
        "tle_line2": "2 39086  98.5503 168.4526 0002823 112.8237 247.3245 14.32755840668588"
      },
      "geometry": {
        "type": "Point",
        "coordinates": [
          80.11291786658329,
          81.44186731887895
        ]
      }
    },
    {
      "type": "Feature",
      "properties": {
        "norad_id": 39150,
        "name": "GAOFEN-1",
        "group": "resource",
        "lat": -76.63763699003428,
        "lon": 91.42739651401916,
        "alt_km": 656.0779801718536,
        "timestamp": "2025-12-10T18:56:59.718888+00:00",
        "meta_object_name": "GAOFEN-1",
        "meta_object_id": "2013-018A",
        "meta_epoch": "2025-12-10T11:10:38.277984",
        "meta_mean_motion": 14.76527636,
        "meta_eccentricity": 0.0018013,
        "meta_inclination": 97.9326,
        "meta_ra_of_asc_node": 55.1651,
        "meta_arg_of_pericenter": 149.8946,
        "meta_mean_anomaly": 210.3304,
        "meta_ephemeris_type": 0,
        "meta_classification_type": "U",
        "meta_norad_cat_id": 39150,
        "meta_element_set_no": 999,
        "meta_rev_at_epoch": 68039,
        "meta_bstar": 0.00017441,
        "meta_mean_motion_dot": 1.168e-05,
        "meta_mean_motion_ddot": 0,
        "tle_line1": "1 39150U 13018A   25344.46572081  .00001168  00000+0  17441-3 0  9997",
        "tle_line2": "2 39150  97.9326  55.1651 0018013 149.8946 210.3304 14.76527636680399"
      },
      "geometry": {
        "type": "Point",
        "coordinates": [
          91.42739651401916,
          -76.63763699003428
        ]
      }
    }
  ]
}